NORAD_CAT_ID,OBJECT_NAME,OBJECT_TYPE,EPOCH,MEAN_MOTION,ECCENTRICITY,INCLINATION,RA_OF_ASC_NODE,ARG_OF_PERICENTER,MEAN_ANOMALY,BSTAR,MEAN_MOTION_DOT,MEAN_MOTION_DDOT,TLE_LINE0,TLE_LINE1,TLE_LINE2,SEMIMAJOR_AXIS,PERIOD,APOGEE,PERIGEE,DECAYED
53920.0,STARLINK-5025,PAYLOAD,2023-06-20 01:27:23,15.0883342,9.95e-05,53.2171,94.4799,103.9953,256.115,0.00012067,1.633e-05,0.0,0 STARLINK-5025,1 53920U 22119AL  23171.06068795  .00001633  00000-0  12067-3 0  9991,2 53920  53.2171  94.4799 0000995 103.9953 256.1150 15.08833420 41408,6917.901,95.438,540.454,539.077,0.0
53920.0,STARLINK-5025,PAYLOAD,2023-06-20 04:38:09,15.08840582,0.0001127,53.2168,93.8857,100.9997,259.1122,0.00011461,1.537e-05,0.0,0 STARLINK-5025,1 53920U 22119AL  23171.19316431  .00001537  00000-0  11461-3 0  9998,2 53920  53.2168  93.8857 0001127 100.9997 259.1122 15.08840582 41842,6917.879,95.438,540.523,538.964,0.0
53920.0,STARLINK-5025,PAYLOAD,2023-06-21 04:28:55,15.0885231,0.0001065,53.2171,89.4252,99.3949,260.7164,6.3252e-05,7.19e-06,0.0,0 STARLINK-5025,1 53920U 22119AL  23172.18675755  .00000719  00000-0  63252-4 0  9992,2 53920  53.2171  89.4252 0001065  99.3949 260.7164 15.08852310 41571,6917.843,95.437,540.445,538.971,0.0
53920.0,STARLINK-5025,PAYLOAD,2023-06-21 18:47:25,15.08832068,9.77e-05,53.2169,86.749,97.0298,263.0806,1.6884e-05,-1.9e-07,0.0,0 STARLINK-5025,1 53920U 22119AL  23172.78293221 -.00000019  00000-0  16884-4 0  9995,2 53920  53.2169  86.7490 0000977  97.0298 263.0806 15.08832068 41662,6917.905,95.438,540.446,539.094,0.0
53920.0,STARLINK-5025,PAYLOAD,2023-06-22 02:44:20,15.08840012,0.0001134,53.2165,85.2642,88.4721,271.6401,1.5322e-05,-4.4e-07,0.0,0 STARLINK-5025,1 53920U 22119AL  23173.11412869 -.00000044  00000-0  15322-4 0  9998,2 53920  53.2165  85.2642 0001134  88.4721 271.6401 15.08840012 41712,6917.88,95.438,540.53,538.961,0.0
53920.0,STARLINK-5025,PAYLOAD,2023-06-23 04:10:30,15.08852626,0.0001124,53.2168,80.5063,93.8593,266.2528,9.301e-05,1.193e-05,0.0,0 STARLINK-5025,1 53920U 22119AL  23174.17396049  .00001193  00000-0  93010-4 0  9991,2 53920  53.2168  80.5063 0001124  93.8593 266.2528 15.08852626 41877,6917.842,95.437,540.484,538.929,0.0
53920.0,STARLINK-5025,PAYLOAD,2023-06-23 18:28:59,15.08832267,0.0001385,53.2186,77.8311,99.206,260.9089,6.4721e-05,7.42e-06,0.0,0 STARLINK-5025,1 53920U 22119AL  23174.77013602  .00000742  00000-0  64721-4 0  9994,2 53920  53.2186  77.8311 0001385  99.2060 260.9089 15.08832267 41962,6917.904,95.438,540.727,538.811,0.0
53920.0,STARLINK-5025,PAYLOAD,2023-06-24 02:25:55,15.08839273,0.0001377,53.2184,76.3437,98.2713,261.8436,0.00012162,1.648e-05,0.0,0 STARLINK-5025,1 53920U 22119AL  23175.10133210  .00001648  00000-0  12162-3 0  9997,2 53920  53.2184  76.3437 0001377  98.2713 261.8436 15.08839273 42015,6917.883,95.438,540.7,538.795,0.0
53920.0,STARLINK-5025,PAYLOAD,2023-06-25 02:16:41,15.08850811,0.0001272,53.216,71.8821,88.9895,271.1243,0.00018823,2.71e-05,0.0,0 STARLINK-5025,1 53920U 22119AL  23176.09492679  .00002710  00000-0  18823-3 0  9994,2 53920  53.2160  71.8821 0001272  88.9895 271.1243 15.08850811 42164,6917.847,95.437,540.592,538.832,0.0
53920.0,STARLINK-5025,PAYLOAD,2023-06-25 16:35:10,15.08840104,0.000147,53.2145,69.2064,87.0876,273.0284,9.2577e-05,1.186e-05,0.0,0 STARLINK-5025,1 53920U 22119AL  23176.69109309  .00001186  00000-0  92577-4 0  9990,2 53920  53.2145  69.2064 0001470  87.0876 273.0284 15.08840104 42256,6917.88,95.438,540.762,538.728,0.0
53920.0,STARLINK-5025,PAYLOAD,2023-06-26 02:07:28,15.08849655,0.0001345,53.2165,67.4224,90.6568,269.4578,0.00023605,3.472e-05,0.0,0 STARLINK-5025,1 53920U 22119AL  23177.08852820  .00003472  00000-0  23605-3 0  9992,2 53920  53.2165  67.4224 0001345  90.6568 269.4578 15.08849655 42317,6917.851,95.437,540.646,538.785,0.0
53920.0,STARLINK-5025,PAYLOAD,2023-06-26 16:25:57,15.08835331,0.000134,53.2161,64.7454,91.7885,268.326,-3.8509e-05,-9.01e-06,0.0,0 STARLINK-5025,1 53920U 22119AL  23177.68469565 -.00000901  00000-0 -38509-4 0  9994,2 53920  53.2161  64.7454 0001340  91.7885 268.3260 15.08835331 42409,6917.895,95.438,540.687,538.833,0.0
53920.0,STARLINK-5025,PAYLOAD,2023-06-27 19:27:31,15.08842986,0.0001341,53.216,59.6908,85.3678,274.7467,0.00023735,3.492e-05,0.0,0 STARLINK-5025,1 53920U 22119AL  23178.81077715  .00003492  00000-0  23735-3 0  9992,2 53920  53.2160  59.6908 0001341  85.3678 274.7467 15.08842986 42577,6917.871,95.437,540.664,538.809,0.0
53920.0,STARLINK-5025,PAYLOAD,2023-06-28 01:49:03,15.08851112,0.0001297,53.2165,58.4998,92.8994,267.2146,0.00056708,8.751e-05,0.0,0 STARLINK-5025,1 53920U 22119AL  23179.07573550  .00008751  00000-0  56708-3 0  9998,2 53920  53.2165  58.4998 0001297  92.8994 267.2146 15.08851112 42619,6917.846,95.437,540.609,538.814,0.0
53920.0,STARLINK-5025,PAYLOAD,2023-06-29 01:39:50,15.08840406,0.0001169,53.2163,54.0398,82.9783,277.1342,0.00014114,1.959e-05,0.0,0 STARLINK-5025,1 53920U 22119AL  23180.06933992  .00001959  00000-0  14114-3 0  9997,2 53920  53.2163  54.0398 0001169  82.9783 277.1342 15.08840406 42765,6917.879,95.438,540.553,538.935,0.0
53920.0,STARLINK-5025,PAYLOAD,2023-06-30 23:46:01,15.08839486,0.0001266,53.2172,45.4184,83.8238,276.2898,2.6022e-05,1.26e-06,0.0,0 STARLINK-5025,1 53920U 22119AL  23181.99029963  .00000126  00000-0  26022-4 0  9991,2 53920  53.2172  45.4184 0001266  83.8238 276.2898 15.08839486 43050,6917.882,95.438,540.623,538.871,0.0
53920.0,STARLINK-5025,PAYLOAD,2023-07-02 01:12:12,15.08844254,0.0001225,53.218,40.6604,86.4974,273.6159,7.4626e-05,9e-06,0.0,0 STARLINK-5025,1 53920U 22119AL  23183.05014075  .00000900  00000-0  74626-4 0  9991,2 53920  53.2180  40.6604 0001225  86.4974 273.6159 15.08844254 43212,6917.867,95.437,540.58,538.885,0.0
53920.0,STARLINK-5025,PAYLOAD,2023-07-03 07:24:32,15.08833364,0.0001207,53.2177,35.0099,88.6156,271.4974,2.7995e-05,1.58e-06,0.0,0 STARLINK-5025,1 53920U 22119AL  23184.30870924  .00000158  00000-0  27995-4 0  9995,2 53920  53.2177  35.0099 0001207  88.6156 271.4974 15.08833364 43402,6917.901,95.438,540.601,538.931,0.0
53920.0,STARLINK-5025,PAYLOAD,2023-07-03 23:18:23,15.08845053,0.0001244,53.2166,32.0355,86.5977,273.5157,0.00013544,1.869e-05,0.0,0 STARLINK-5025,1 53920U 22119AL  23184.97110056  .00001869  00000-0  13544-3 0  9995,2 53920  53.2166  32.0355 0001244  86.5977 273.5157 15.08845053 43506,6917.865,95.437,540.591,538.869,0.0
53920.0,STARLINK-5025,PAYLOAD,2023-07-05 07:06:05,15.08843184,0.0001326,53.2169,26.0867,97.0577,263.0566,5.1493e-05,5.32e-06,0.0,0 STARLINK-5025,1 53920U 22119AL  23186.29590128  .00000532  00000-0  51493-4 0  9996,2 53920  53.2169  26.0867 0001326  97.0577 263.0566 15.08843184 43707,6917.871,95.437,540.653,538.818,0.0
53920.0,STARLINK-5025,PAYLOAD,2023-07-06 13:18:25,15.08841124,0.0001217,53.2174,20.4384,95.7819,264.3312,8.8849e-05,1.126e-05,0.0,0 STARLINK-5025,1 53920U 22119AL  23187.55446456  .00001126  00000-0  88849-4 0  9995,2 53920  53.2174  20.4384 0001217  95.7819 264.3312 15.08841124 43893,6917.877,95.437,540.584,538.9,0.0
53920.0,STARLINK-5025,PAYLOAD,2023-07-07 19:30:45,15.08841614,0.0001104,53.2173,14.7886,93.7907,266.3211,0.00013619,1.88e-05,0.0,0 STARLINK-5025,1 53920U 22119AL  23188.81302484  .00001880  00000-0  13619-3 0  9996,2 53920  53.2173  14.7886 0001104  93.7907 266.3211 15.08841614 44082,6917.875,95.437,540.504,538.977,0.0
53920.0,STARLINK-5025,PAYLOAD,2023-07-08 20:56:55,15.08844016,0.0001028,53.217,10.0316,91.1185,268.9925,0.00010433,1.373e-05,0.0,0 STARLINK-5025,1 53920U 22119AL  23189.87286417  .00001373  00000-0  10433-3 0  9998,2 53920  53.2170  10.0316 0001028  91.1185 268.9925 15.08844016 44248,6917.868,95.437,540.444,539.022,0.0
53920.0,STARLINK-5025,PAYLOAD,2023-07-09 04:53:51,15.08837387,9.13e-05,53.216,8.5442,91.4106,268.6991,4.1115e-05,3.67e-06,0.0,0 STARLINK-5025,1 53920U 22119AL  23190.20406737  .00000367  00000-0  41115-4 0  9990,2 53920  53.2160   8.5442 0000913  91.4106 268.6991 15.08837387 44295,6917.888,95.438,540.385,539.122,0.0
53920.0,STARLINK-5025,PAYLOAD,2023-07-10 11:06:11,15.088413,0.0001002,53.2171,2.8947,92.5876,267.5231,9.8726e-05,1.284e-05,0.0,0 STARLINK-5025,1 53920U 22119AL  23191.46262981  .00001284  00000-0  98726-4 0  9999,2 53920  53.2171   2.8947 0001002  92.5876 267.5231 15.08841300 44486,6917.876,95.437,540.435,539.048,0.0
53920.0,STARLINK-5025,PAYLOAD,2023-07-11 10:56:58,15.08836916,0.0001154,53.219,358.4339,84.4364,275.676,9.7401e-05,1.263e-05,0.0,0 STARLINK-5025,1 53920U 22119AL  23192.45623373  .00001263  00000-0  97401-4 0  9991,2 53920  53.2190 358.4339 0001154  84.4364 275.6760 15.08836916 44633,6917.89,95.438,540.553,538.956,0.0
53920.0,STARLINK-5025,PAYLOAD,2023-07-12 17:09:17,15.08847096,0.0001082,53.218,352.7843,82.174,277.9375,5.8743e-05,6.47e-06,0.0,0 STARLINK-5025,1 53920U 22119AL  23193.71478783  .00000647  00000-0  58743-4 0  9995,2 53920  53.2180 352.7843 0001082  82.1740 277.9375 15.08847096 44821,6917.859,95.437,540.472,538.975,0.0
53920.0,STARLINK-5025,PAYLOAD,2023-07-13 17:00:05,15.08840124,0.0001055,53.2179,348.3239,84.4863,275.6249,7.7288e-05,9.42e-06,0.0,0 STARLINK-5025,1 53920U 22119AL  23194.70839229  .00000942  00000-0  77288-4 0  9994,2 53920  53.2179 348.3239 0001055  84.4863 275.6249 15.08840124 44976,6917.88,95.438,540.475,539.015,0.0
53920.0,STARLINK-5025,PAYLOAD,2023-07-14 18:26:14,15.08850085,9.99e-05,53.2173,343.5655,85.2749,274.8358,0.00016717,2.374e-05,0.0,0 STARLINK-5025,1 53920U 22119AL  23195.76822700  .00002374  00000-0  16717-3 0  9997,2 53920  53.2173 343.5655 0000999  85.2749 274.8358 15.08850085 45135,6917.85,95.437,540.406,539.023,0.0
53920.0,STARLINK-5025,PAYLOAD,2023-07-15 10:20:07,15.08832771,0.0001109,53.2176,340.5915,86.4602,273.6517,2.8154e-05,1.6e-06,0.0,0 STARLINK-5025,1 53920U 22119AL  23196.43063686  .00000160  00000-0  28154-4 0  9992,2 53920  53.2176 340.5915 0001109  86.4602 273.6517 15.08832771 45236,6917.902,95.438,540.535,539.0,0.0
